STARLINK-32515          
1 61705U 24195U   26068.53463734 -.00000825  00000+0 -15744-4 0  9998
2 61705  53.1606 156.3738 0001321  84.4033 275.7118 15.30171928 77152
TEVEL2-5                
1 63214U 25052E   26068.96660006  .00021339  00000+0  71765-3 0  9991
2 63214  97.4013 325.3677 0004700  95.3936 264.7842 15.30817434 54919
